INTELSAT 902 (IS-902)   
1 26900U 01039A   26159.11994273 -.00000269  00000+0  00000+0 0  9995
2 26900   6.0956  71.8927 0004302   2.8502 174.8304  1.00270299 90607
INTELSAT 904 (IS-904)   
1 27380U 02007A   26159.14141970 -.00000211  00000+0  00000+0 0  9992
2 27380   6.8967  69.2917 0006741   2.4117 204.2384  1.00271575 51675
DIRECTV 5 (TEMPO 1)     
1 27426U 02023A   26158.89413235 -.00000042  00000+0  00000+0 0  9990
2 27426   4.8532  75.4254 0003395  10.8627  21.7893  1.00271650 88037
INTELSAT 905 (IS-905)   
1 27438U 02027A   26158.54554470  .00000107  00000+0  00000+0 0  9997
2 27438   6.7285  69.9157 0004099  15.2283 229.9944  1.00273058 51263
GALAXY 3C (G-3C)        
1 27445U 02030A   26158.89716568 -.00000138  00000+0  00000+0 0  9990
2 27445   3.7060  78.1005 0001815  30.4754  15.8501  1.00271569 46404
INTELSAT 906 (IS-906)   
1 27513U 02041A   26158.83150067  .00000028  00000+0  00000+0 0  9995
2 27513   5.7801  73.0349 0004710 357.2645 189.4030  1.00271140 86938
GALAXY 13 (HORIZONS-1)  
1 27954U 03044A   26159.02882931  .00000148  00000+0  00000+0 0  9995
2 27954   1.3966  83.9694 0002092 348.1964  44.6224  1.00273107 46486
INTELSAT 10-02          
1 28358U 04022A   26158.91574572  .00000004  00000+0  00000+0 0  9998
2 28358   0.0048 329.6678 0000447 189.7889  65.5178  1.00271594 80465
DIRECTV 8               
1 28659U 05019A   26159.10627411  .00000017  00000+0  00000+0 0  9996
2 28659   0.0040  88.1577 0002963 352.8200  94.7356  1.00271496 76986
GALAXY 28 (G-28)        
1 28702U 05022A   26159.13586205 -.00000185  00000+0  00000+0 0  9994
2 28702   3.2763  79.0408 0002828 353.0464 206.2458  1.00272650 51887
GALAXY 16 (G-16)        
1 29236U 06023A   26159.03896933 -.00000112  00000+0  00000+0 0  9990
2 29236   0.0182 152.5015 0002684 285.2629  93.7034  1.00271761 72884
DIRECTV 9S              
1 29494U 06043A   26159.10956747 -.00000098  00000+0  00000+0 0  9999
2 29494   2.3964  81.0118 0005056   6.4717 107.2813  1.00271553 51297
GALAXY 17 (G-17)        
1 31307U 07016B   26159.11300936 -.00000191  00000+0  00000+0 0  9994
2 31307   2.9482  80.0147 0004865  15.3033 116.8840  1.00271807 69716
INTELSAT 11 (IS-11)     
1 32253U 07044B   26158.94884257 -.00000217  00000+0  00000+0 0  9998
2 32253   3.5405  78.7812 0001846  81.6016 243.9590  0.99053755 68355
HORIZONS-2              
1 32388U 07063B   26159.11526272 -.00000238  00000+0  00000+0 0  9991
2 32388   2.5778  80.7370 0004011 354.9553 148.5448  1.00272073 67728
DIRECTV 11              
1 32729U 08013A   26158.61107167 -.00000111  00000+0  00000+0 0  9998
2 32729   0.0327 183.0093 0000485 231.4353 322.3797  1.00273719 45494
GALAXY 18 (G-18)        
1 32951U 08024A   26158.96291553  .00000040  00000+0  00000+0 0  9998
2 32951   0.0261  74.3537 0003178  12.8322  32.8227  1.00272864 45763
INTELSAT 25 (IS-25)     
1 33153U 08034A   26159.19365394 -.00000237  00000+0  00000+0 0  9994
2 33153   2.6842  80.4374 0001899  32.8806  14.6653  0.99020618 65606
GALAXY 19 (G-19)        
1 33376U 08045A   26159.03931601 -.00000124  00000+0  00000+0 0  9991
2 33376   0.0240  82.7934 0002762 352.4282  98.3795  1.00271983 64817
FM-5                    
1 35493U 09034A   26158.97019557 -.00000185  00000+0  00000+0 0  9998
2 35493   0.0178 289.3820 0000625  21.8030 208.3062  1.00272680 46558
INTELSAT 14 (IS-14)     
1 36097U 09064A   26159.14141970 -.00000258  00000+0  00000+0 0  9998
2 36097   0.0167 332.8554 0002802 120.2032 169.4002  1.00271031 60512
INTELSAT 15 (IS-15)     
1 36106U 09067A   26159.14671940 -.00000170  00000+0  00000+0 0  9990
2 36106   0.0157 337.9571 0002315 102.1478 314.4095  1.00271557 41133
DIRECTV 12              
1 36131U 09075A   26158.61046499 -.00000089  00000+0  00000+0 0  9992
2 36131   0.0273 150.8162 0000259 248.0677 334.1802  1.00270450 46450
INTELSAT 16 (IS-16)     
1 36397U 10006A   26158.82957663 -.00000230  00000+0  00000+0 0  9997
2 36397   0.0242  52.7112 0002170  38.0062  27.9739  1.00270767 59567
XM-5                    
1 37185U 10053A   26158.96438888 -.00000008  00000+0  00000+0 0  9996
2 37185   0.0662 273.0807 0002612 283.2447 292.0284  1.00269706 57390
INTELSAT 17 (IS-17)     
1 37238U 10065B   26159.14290603  .00000014  00000+0  00000+0 0  9996
2 37238   0.0102 108.1733 0002586 343.0048 282.8036  1.00272293 53153
INTELSAT 28 (IS-28)     
1 37392U 11016A   26159.13586205 -.00000210  00000+0  00000+0 0  9998
2 37392   1.7818  82.7346 0003888 354.3673 196.6337  1.00268771 53194
INTELSAT 18 (IS-18)     
1 37834U 11056A   26159.09396741  .00000068  00000+0  00000+0 0  9992
2 37834   0.0202 320.8444 0002137 130.5072  18.9700  1.00272240 53727
INTELSAT 22 (IS-22)     
1 38098U 12011A   26159.14411939 -.00000044  00000+0  00000+0 0  9995
2 38098   0.0228  63.7498 0001612   3.9804 312.7921  1.00273351  7096
INTELSAT 19 (IS-19)     
1 38356U 12030A   26158.59237111 -.00000042  00000+0  00000+0 0  9997
2 38356   0.0106  32.4422 0003093  51.8353 190.9735  1.00271459 50357
INTELSAT 20 (IS-20)     
1 38740U 12043A   26159.07212126 -.00000008  00000+0  00000+0 0  9993
2 38740   0.0081  87.6182 0001576 100.3071 163.0027  1.00266075 50658
